STARLINK-3606           
1 51807U 22017AR  22330.36274002  .00000538  00000+0  51954-4 0  9990
2 51807  53.2182 323.1228 0003339  37.0645 323.0577 15.08845824 43052
STARLINK-3609           
1 51808U 22017AS  22329.68561287  .00000737  00000+0  64395-4 0  9992
2 51808  53.2167 326.1538 0002401  40.1124 320.0045 15.08847018 42805
STARLINK-3607           
1 51809U 22017AT  22329.69665415  .00002772  00000+0  19221-3 0  9990
2 51809  53.2172 326.1048 0002667  31.7573 328.3580 15.08844883 42909
STARLINK-3613           
1 51810U 22017AU  22330.10700899  .00001465  00000+0  11014-3 0  9996
2 51810  53.2181 314.2648 0002508  37.0927 323.0238 15.08851248 43109
STARLINK-3569           
1 51811U 22017AV  22329.68929602  .00000317  00000+0  38035-4 0  9991
2 51811  53.2172 326.1382 0002494  35.2042 324.9115 15.08841674 42801
STARLINK-3610           
1 51812U 22017AW  22330.22749131  .00001088  00000+0  86434-4 0  9993
2 51812  53.2193 313.7173 0002849  28.9393 331.1757 15.08847157 43116
STARLINK-3552           
1 51813U 22017AX  22329.41149277 -.00001802  00000+0 -95067-4 0  9996
2 51813  53.2186 317.3844 0002834  29.8440 330.2713 15.08848936 42994
STARLINK-3599           
1 51814U 22017AY  22329.69021215  .00001418  00000+0  10714-3 0  9994
2 51814  53.2186 316.1402 0002222  39.3679 320.7475 15.08846750 42927
STARLINK-3604           
1 51815U 22017AZ  22329.69389386  .00002782  00000+0  19278-3 0  9990
2 51815  53.2173 316.1262 0001703  52.0980 308.0166 15.08845658 42920
STARLINK-3603           
1 51816U 22017BA  22330.34893212  .00001010  00000+0  81560-4 0  9990
2 51816  53.2164 313.1796 0002062  42.1059 318.0092 15.08844660 43197
STARLINK-3596           
1 51817U 22017BB  22329.99555618  .00005151  00000+0  35432-4 0  9992
2 51817  53.1993 221.0116 0002989  11.2294 348.8794 15.76749316 44396
STARLINK-3542           
1 51852U 22022A   22329.51633638  .00002441  00000+0  17138-3 0  9995
2 51852  53.2175   6.9077 0002498  39.0668 321.0504 15.08851574 40575
STARLINK-3539           
1 51853U 22022B   22329.58625358  .00000979  00000+0  79617-4 0  9998
2 51853  53.2188   6.6000 0002019  42.5300 317.5848 15.08845451 41786
STARLINK-3541           
1 51854U 22022C   22329.97633456  .00001366  00000+0  10393-3 0  9996
2 51854  53.2184   4.8401 0002585  39.6786 320.4395 15.08849984 41900
STARLINK-3545           
1 51855U 22022D   22329.83649230  .00006112  00000+0  40163-3 0  9991
2 51855  53.2185   5.4781 0002500  36.8412 323.2752 15.08851834 41839
STARLINK-3568           
1 51856U 22022E   22329.84017021  .00003032  00000+0  20846-3 0  9994
2 51856  53.2196   5.4618 0002094  47.7213 312.3957 15.08846675 41911
STARLINK-3571           
1 51857U 22022F   22329.82913092  .00002726  00000+0  18931-3 0  9997
2 51857  53.2191   5.5063 0002000  44.1377 315.9775 15.08845519 41880
STARLINK-3563           
1 51858U 22022G   22330.09777674  .00006276  00000+0  41192-3 0  9992
2 51858  53.2178   4.3071 0002220  42.1256 317.9906 15.08853614 41928
STARLINK-3560           
1 51859U 22022H   22329.78221489  .00002251  00000+0  15951-3 0  9998
2 51859  53.2202 355.7081 0002252  39.2656 320.8500 15.08841838 42016
STARLINK-3559           
1 51860U 22022J   22329.78957423  .00001680  00000+0  12361-3 0  9991
2 51860  53.2190 355.6772 0002564  29.0781 331.0354 15.08847352 41974
STARLINK-3562           
1 51861U 22022K   22329.77485426  .00001671  00000+0  12306-3 0  9999
2 51861  53.2180 355.7408 0002366  33.9784 326.1359 15.08843564 41889
STARLINK-3508           
1 51862U 22022L   22330.05085101  .00001464  00000+0  11009-3 0  9998
2 51862  53.2184 354.5198 0002412  32.8074 327.3068 15.08844772 42062
STARLINK-3555           
1 51863U 22022M   22329.76749153  .00001951  00000+0  14062-3 0  9992
2 51863  53.2188 355.7884 0002372  35.5924 324.5226 15.08844713 41969
STARLINK-3548           
1 51864U 22022N   22330.37469706  .00001354  00000+0  10320-3 0  9995
2 51864  53.2196 353.0617 0002450  33.5299 326.5848 15.08837839 42104
STARLINK-3503           
1 51865U 22022P   22330.35628919  .00000978  00000+0  79531-4 0  9998
2 51865  53.2179 353.1465 0002840  30.6375 329.4782 15.08850819 42050
STARLINK-3553           
1 51866U 22022Q   22330.36733374  .00002591  00000+0  18083-3 0  9999
2 51866  53.2192 353.0825 0002699  29.5799 330.5345 15.08844028 42057
STARLINK-3590           
1 51867U 22022R   22330.35260993  .00001466  00000+0  11021-3 0  9996
2 51867  53.2167 353.1621 0002098  37.3650 322.7487 15.08841921 42050
STARLINK-3578           
1 51868U 22022S   22330.35997605  .00000502  00000+0  49662-4 0  9997
2 51868  53.2176 353.1279 0002209  36.6575 323.4568 15.08836097 42058
STARLINK-3588           
1 51869U 22022T   22329.81165262  .00002595  00000+0  18103-3 0  9992
2 51869  53.2187 355.5971 0002685  29.9783 330.1362 15.08849414 41974
STARLINK-3591           
1 51870U 22022U   22330.34893017  .00001123  00000+0  88632-4 0  9991
2 51870  53.2169 353.1778 0002494  35.4394 324.6764 15.08850024 42102
STARLINK-3567           
1 51871U 22022V   22329.80797902  .00004695  00000+0  31283-3 0  9993
2 51871  53.2172 355.6095 0002186  34.7508 325.3627 15.08850461 42014
STARLINK-3554           
1 51872U 22022W   22329.81533793  .00001022  00000+0  82295-4 0  9992
2 51872  53.2189 355.5817 0002088  41.3772 318.7378 15.08842334 41975
STARLINK-3582           
1 51873U 22022X   22330.32684887 -.00000070  00000+0  13705-4 0  9995
2 51873  53.2190 353.2665 0002402  34.8857 325.2292 15.08853820 42055
STARLINK-3574           
1 51874U 22022Y   22330.33421286  .00001583  00000+0  11752-3 0  9997
2 51874  53.2196 353.2433 0002440  39.3544 320.7625 15.08840064 42045
STARLINK-3585           
1 51875U 22022Z   22329.59181705  .00003205  00000+0  21936-3 0  9991
2 51875  53.2173 356.5841 0002814  35.3268 324.7910 15.08848328 41944
STARLINK-3583           
1 51876U 22022AA  22330.06557172  .00002243  00000+0  15899-3 0  9993
2 51876  53.2190 354.4373 0002744  29.1070 331.0075 15.08847392 42017
STARLINK-3556           
1 51877U 22022AB  22330.44553526  .00000379  00000+0  41944-4 0  9994
2 51877  53.2195 342.7404 0002374  41.7840 318.3333 15.08846230 42208
STARLINK-3575           
1 51878U 22022AC  22330.45565370  .00002182  00000+0  15513-3 0  9992
2 51878  53.2186 352.7030 0002640  32.1630 327.9523 15.08843565 42072
STARLINK-3572           
1 51879U 22022AD  22329.37833769  .00001051  00000+0  84156-4 0  9996
2 51879  53.2191 347.5300 0002308  30.8231 329.2896 15.08843234 42042
STARLINK-3566           
1 51880U 22022AE  22330.35356555  .00000721  00000+0  63409-4 0  9992
2 51880  53.2163 353.1534 0002199  31.6173 328.4951 15.08838593 42053
STARLINK-3504           
1 51881U 22022AF  22330.36457292  .00003207  00000+0  21941-3 0  9990
2 51881  53.2184 343.1091 0002803  25.4766 334.6364 15.08853665 42240
STARLINK-3570           
1 51882U 22022AG  22329.77946061  .00001894  00000+0  13711-3 0  9997
2 51882  53.2184 345.7186 0002621  32.6540 327.4614 15.08840934 42155
STARLINK-3576           
1 51883U 22022AH  22330.42440842  .00001879  00000+0  13614-3 0  9993
2 51883  53.2177 342.8367 0002762  34.9816 325.1357 15.08848980 42196
STARLINK-3577           
1 51884U 22022AJ  22329.77209697  .00002632  00000+0  18340-3 0  9990
2 51884  53.2183 345.7592 0002335  33.5883 326.5257 15.08843659 42182
STARLINK-3584           
1 51885U 22022AK  22330.41977796  .00000333  00000+0  39078-4 0  9994
2 51885  53.2187 342.8628 0002767  29.4554 330.6593 15.08841329 42195
STARLINK-3565           
1 51886U 22022AL  22330.42712977  .00002555  00000+0  17851-3 0  9996
2 51886  53.2172 342.8312 0002058  42.5467 317.5684 15.08850488 42205
STARLINK-3551           
1 51887U 22022AM  22330.41609346  .00002582  00000+0  18026-3 0  9996
2 51887  53.2176 342.8778 0002604  32.0738 328.0412 15.08844030 42198
STARLINK-3536           
1 51888U 22022AN  22330.35723561  .00001882  00000+0  13633-3 0  9997
2 51888  53.2186 343.1394 0002379  41.0781 319.0390 15.08843929 42196
STARLINK-3547           
1 51889U 22022AP  22329.47769622  .00002189  00000+0  15558-3 0  9996
2 51889  53.2194 347.0924 0002747  29.5634 330.5513 15.08841253 42053
STARLINK-3519           
1 51890U 22022AQ  22329.75002399  .00000118  00000+0  25553-4 0  9997
2 51890  53.2183 345.8731 0002562  28.6384 331.4748 15.08832645 42091
STARLINK-3549           
1 51891U 22022AR  22330.33513437  .00000016  00000+0  19098-4 0  9998
2 51891  53.2172 343.2447 0002241  39.1323 320.9831 15.08842596 42238
STARLINK-3587           
1 51892U 22022AS  22329.74633426  .00001814  00000+0  13208-3 0  9996
2 51892  53.2176 345.8935 0002514  29.7128 330.4007 15.08839215 42093
STARLINK-3579           
1 51893U 22022AT  22330.32777365  .00001041  00000+0  83528-4 0  9999
2 51893  53.2196 343.2784 0002587  38.7264 321.3913 15.08847162 42243
STARLINK-3595           
1 51894U 22022AU  22330.33145186  .00001984  00000+0  14275-3 0  9999
2 51894  53.2169 343.2624 0002793  27.8067 332.3074 15.08843782 42240
STARLINK-3594           
1 51895U 22022AV  22330.32409143  .00000855  00000+0  71850-4 0  9994
2 51895  53.2185 343.2894 0002602  34.2497 325.8662 15.08846973 42184
STARLINK-3593           
1 51896U 22022AW  22330.32504881  .00002254  00000+0  15966-3 0  9990
2 51896  53.2191 343.2809 0002622  31.3036 328.8112 15.08846219 42239
STARLINK-3598           
1 51897U 22022AX  22330.45290509  .00012020  00000+0  77295-3 0  9999
2 51897  53.2173 342.7168 0002605  44.8434 315.2768 15.08796154 42200
STARLINK-3597           
1 51898U 22022AY  22330.31672815  .00002299  00000+0  16248-3 0  9997
2 51898  53.2171 343.3272 0002190  41.7391 318.3768 15.08848701 42232
STARLINK-3700           
1 51956U 22025A   22330.53845461  .00001241  00000+0  96082-4 0  9999
2 51956  53.2196  12.3241 0002499  29.3411 330.7721 15.08846501 41254
STARLINK-3694           
1 51957U 22025B   22329.85765945  .00002937  00000+0  20250-3 0  9997
2 51957  53.2180  15.3797 0002206  37.8516 322.2631 15.08845660 40062
